     2              NAVIGATION DATA                         RINEX VERSION / TYPE
CCRINEXN V1.6.2 UX  NSGF                20130103  00:01     PGM / RUN BY / DATE 
    0.1397E-07 -0.7451E-08 -0.5960E-07  0.1192E-06          ION ALPHA           
    0.1270E+06 -0.1966E+06  0.6554E+05  0.2621E+06          ION BETA            
   -0.931322574616E-09-0.266453525910E-14   503808     1721 DELTA-UTC: A0,A1,T,W
    16                                                      LEAP SECONDS        
                                                            END OF HEADER       
18 13  1  3  0  0  0.0 0.232479069382E-03 0.181898940355E-11 0.000000000000E+00
    0.270000000000E+02 0.446875000000E+02 0.567095050357E-08-0.841766486039E+00
    0.261515378952E-05 0.136307113571E-01 0.577047467232E-05 0.515375077248E+04
    0.345600000000E+06-0.186264514923E-08 0.221714186216E+01 0.305473804474E-06
    0.927893700371E+00 0.251687500000E+03-0.213154722169E+01-0.878750889216E-08
    0.156792245312E-09 0.100000000000E+01 0.172100000000E+04 0.000000000000E+00
    0.200000000000E+01 0.000000000000E+00-0.107102096081E-07 0.270000000000E+02
    0.338418000000E+06 0.400000000000E+01 0.000000000000E+00 0.000000000000E+00
22 13  1  3  0  0  0.0 0.154832378030E-03 0.795807864051E-12 0.000000000000E+00
    0.500000000000E+01 0.429687500000E+02 0.558916138243E-08-0.151501119352E+01
    0.234693288803E-05 0.614251277875E-02 0.540725886822E-05 0.515366183090E+04
    0.345600000000E+06 0.949949026108E-07 0.222005468274E+01 0.931322574615E-07
    0.925634119531E+00 0.254031250000E+03-0.202398824433E+01-0.859250076929E-08
    0.182864759908E-09 0.100000000000E+01 0.172100000000E+04 0.000000000000E+00
    0.200000000000E+01 0.000000000000E+00-0.172294676304E-07 0.500000000000E+01
    0.338418000000E+06 0.400000000000E+01 0.000000000000E+00 0.000000000000E+00
24 13  1  3  0  0  0.0 0.129966065288E-05-0.682121026330E-12 0.000000000000E+00
    0.160000000000E+02 0.308125000000E+02 0.441268380599E-08 0.235853207383E+01
    0.169500708580E-05 0.441654585302E-03 0.983849167824E-05 0.515372063637E+04
    0.345600000000E+06-0.204890966415E-07-0.198357252108E+01 0.447034835815E-07
    0.959316670156E+00 0.187281250000E+03-0.126134234843E+00-0.805747848346E-08
    0.571452374714E-10 0.100000000000E+01 0.172100000000E+04 0.000000000000E+00
    0.200000000000E+01 0.000000000000E+00 0.419095158577E-08 0.160000000000E+02
    0.338418000000E+06 0.400000000000E+01 0.000000000000E+00 0.000000000000E+00
26 13  1  3  0  0  0.0-0.152453780174E-03 0.136424205266E-10 0.000000000000E+00
    0.220000000000E+02-0.235937500000E+02 0.411338562474E-08 0.269189891843E+01
   -0.138022005558E-05 0.209958729101E-01 0.818446278572E-05 0.515365679169E+04
    0.345600000000E+06 0.158324837685E-06-0.293245214410E+01-0.236555933952E-06
    0.981071090006E+00 0.228062500000E+03 0.121336611387E+01-0.754924302770E-08
   -0.452876006961E-09 0.100000000000E+01 0.172100000000E+04 0.000000000000E+00
    0.200000000000E+01 0.000000000000E+00-0.605359673500E-08 0.220000000000E+02
    0.338418000000E+06 0.400000000000E+01 0.000000000000E+00 0.000000000000E+00
28 13  1  3  0  0  0.0 0.219858251512E-03 0.352429196937E-11 0.000000000000E+00
    0.180000000000E+02 0.912500000000E+01 0.424981987920E-08-0.158902027181E+01
    0.713393092155E-06 0.185978985392E-01 0.392086803913E-05 0.515363253593E+04
    0.345600000000E+06 0.339001417160E-06-0.874522873468E+00 0.324100255966E-06
    0.981560591173E+00 0.313937500000E+03-0.179823562419E+01-0.806140721854E-08
    0.846463830045E-10 0.100000000000E+01 0.172100000000E+04 0.000000000000E+00
    0.200000000000E+01 0.000000000000E+00-0.107102096081E-07 0.180000000000E+02
    0.338418000000E+06 0.400000000000E+01 0.000000000000E+00 0.000000000000E+00
